[{"OBJECT_NAME":"KAZSTSAT","OBJECT_ID":"2018-099AB","EPOCH":"2026-03-09T14:51:18.118944","MEAN_MOTION":14.99620503,"ECCENTRICITY":0.0006528,"INCLINATION":97.4396,"RA_OF_ASC_NODE":105.0128,"ARG_OF_PERICENTER":11.1145,"MEAN_ANOMALY":349.0222,"EPHEMERIS_TYPE":0,"CLASSIFICATION_TYPE":"U","NORAD_CAT_ID":43783,"ELEMENT_SET_NO":999,"REV_AT_EPOCH":39638,"BSTAR":0.00011446,"MEAN_MOTION_DOT":1.354e-5,"MEAN_MOTION_DDOT":0},{"OBJECT_NAME":"STARLINK-34357","OBJECT_ID":"2025-123V","EPOCH":"2026-03-09T18:00:31.849632","MEAN_MOTION":14.98336272,"ECCENTRICITY":0.00033879,"INCLINATION":70.0024,"RA_OF_ASC_NODE":194.4641,"ARG_OF_PERICENTER":271.5106,"MEAN_ANOMALY":88.5665,"EPHEMERIS_TYPE":0,"CLASSIFICATION_TYPE":"U","NORAD_CAT_ID":64310,"ELEMENT_SET_NO":999,"REV_AT_EPOCH":4162,"BSTAR":0.0006925715,"MEAN_MOTION_DOT":8.182e-5,"MEAN_MOTION_DDOT":0}]
